NORAD_CAT_ID,OBJECT_NAME,OBJECT_TYPE,EPOCH,MEAN_MOTION,ECCENTRICITY,INCLINATION,RA_OF_ASC_NODE,ARG_OF_PERICENTER,MEAN_ANOMALY,BSTAR,MEAN_MOTION_DOT,MEAN_MOTION_DDOT,TLE_LINE0,TLE_LINE1,TLE_LINE2,SEMIMAJOR_AXIS,PERIOD,APOGEE,PERIGEE,DECAYED
49144.0,STARLINK-3100,PAYLOAD,2024-02-24 07:51:59,14.98329669,0.000274,70.0023,11.2469,270.5934,89.4911,4.917e-05,4.94e-06,0.0,0 STARLINK-3100,1 49144U 21082Q   24055.32777690  .00000494  00000-0  49170-4 0  9994,2 49144  70.0023  11.2469 0002740 270.5934  89.4911 14.98329669134481,6950.194,96.107,573.963,570.155,0.0
49144.0,STARLINK-3100,PAYLOAD,2024-02-25 04:41:44,14.98335556,0.0002776,70.002,9.0586,268.0111,92.073,2.0906e-05,1.57e-06,0.0,0 STARLINK-3100,1 49144U 21082Q   24056.19565242  .00000157  00000-0  20906-4 0  9990,2 49144  70.0020   9.0586 0002776 268.0111  92.0730 14.98335556134617,6950.176,96.107,573.97,570.111,0.0
49144.0,STARLINK-3100,PAYLOAD,2024-02-25 14:18:32,14.9833461,0.0002602,70.002,8.0485,272.9948,87.0913,-1.1574e-05,-2.31e-06,0.0,0 STARLINK-3100,1 49144U 21082Q   24056.59621308 -.00000231  00000-0 -11574-4 0  9996,2 49144  70.0020   8.0485 0002602 272.9948  87.0913 14.98334610134677,6950.179,96.107,573.852,570.235,0.0
49144.0,STARLINK-3100,PAYLOAD,2024-02-25 22:19:13,14.98326935,0.0002967,70.0021,7.2055,272.5156,87.5663,0.00010108,1.113e-05,0.0,0 STARLINK-3100,1 49144U 21082Q   24056.93001366  .00001113  00000-0  10108-3 0  9999,2 49144  70.0021   7.2055 0002967 272.5156  87.5663 14.98326935134727,6950.202,96.107,574.129,570.005,0.0
49144.0,STARLINK-3100,PAYLOAD,2024-02-26 06:19:53,14.98332859,0.0002777,70.0022,6.3657,267.5986,92.4855,6.7682e-05,7.15e-06,0.0,0 STARLINK-3100,1 49144U 21082Q   24057.26381121  .00000715  00000-0  67682-4 0  9993,2 49144  70.0022   6.3657 0002777 267.5986  92.4855 14.98332859134775,6950.184,96.107,573.979,570.119,0.0
49144.0,STARLINK-3100,PAYLOAD,2024-02-26 19:08:58,14.98328571,0.000223,70.0029,5.0207,277.4915,82.5991,-4.1779e-05,-5.91e-06,0.0,0 STARLINK-3100,1 49144U 21082Q   24057.79789897 -.00000591  00000-0 -41779-4 0  9996,2 49144  70.0029   5.0207 0002230 277.4915  82.5991 14.98328571134851,6950.197,96.107,573.612,570.512,0.0
49144.0,STARLINK-3100,PAYLOAD,2024-02-26 22:21:14,14.98321189,0.0002322,70.0029,4.6826,283.4587,76.6313,3.0155e-05,2.67e-06,0.0,0 STARLINK-3100,1 49144U 21082Q   24057.93142096  .00000267  00000-0  30155-4 0  9990,2 49144  70.0029   4.6826 0002322 283.4587  76.6313 14.98321189134879,6950.22,96.108,573.699,570.471,0.0
49144.0,STARLINK-3100,PAYLOAD,2024-02-27 06:21:54,14.9832812,0.0002732,70.0015,3.8402,271.6303,88.4543,-1.3035e-05,-2.48e-06,0.0,0 STARLINK-3100,1 49144U 21082Q   24058.26521748 -.00000248  00000-0 -13035-4 0  9991,2 49144  70.0015   3.8402 0002732 271.6303  88.4543 14.98328120134929,6950.199,96.107,573.962,570.165,0.0
49144.0,STARLINK-3100,PAYLOAD,2024-02-27 19:10:59,14.98328662,0.0002906,70.0016,2.493,269.7121,90.3705,4.3039e-05,4.21e-06,0.0,0 STARLINK-3100,1 49144U 21082Q   24058.79929558  .00000421  00000-0  43039-4 0  9998,2 49144  70.0016   2.4930 0002906 269.7121  90.3705 14.98328662135003,6950.197,96.107,574.082,570.042,0.0
49144.0,STARLINK-3100,PAYLOAD,2024-02-27 22:23:15,14.98329917,0.0003018,70.0016,2.1576,270.0381,90.0432,0.00010247,1.13e-05,0.0,0 STARLINK-3100,1 49144U 21082Q   24058.93281289  .00001130  00000-0  10247-3 0  9998,2 49144  70.0016   2.1576 0003018 270.0381  90.0432 14.98329917135024,6950.193,96.107,574.156,569.961,0.0
49144.0,STARLINK-3100,PAYLOAD,2024-02-28 03:11:38,14.98342284,0.000271,70.0011,1.6524,262.5472,97.5379,-8.5516e-05,-1.113e-05,0.0,0 STARLINK-3100,1 49144U 21082Q   24059.13308963 -.00001113  00000-0 -85516-4 0  9995,2 49144  70.0011   1.6524 0002710 262.5472  97.5379 14.98342284135058,6950.155,96.106,573.903,570.136,0.0
49144.0,STARLINK-3100,PAYLOAD,2024-02-28 12:48:27,14.98330858,0.0002805,70.0018,0.6436,263.8988,96.1851,-1.7565e-05,-3.03e-06,0.0,0 STARLINK-3100,1 49144U 21082Q   24059.53365440 -.00000303  00000-0 -17565-4 0  9991,2 49144  70.0018   0.6436 0002805 263.8988  96.1851 14.98330858135118,6950.19,96.107,574.005,570.106,0.0
49144.0,STARLINK-3100,PAYLOAD,2024-02-28 22:25:16,14.98328216,0.0002791,70.0015,359.6335,258.6646,101.4199,9.5479e-05,1.046e-05,0.0,0 STARLINK-3100,1 49144U 21082Q   24059.93421382  .00001046  00000-0  95479-4 0  9996,2 49144  70.0015 359.6335 0002791 258.6646 101.4199 14.98328216135173,6950.198,96.107,574.003,570.124,0.0
49144.0,STARLINK-3100,PAYLOAD,2024-02-29 12:50:28,14.98330657,0.0002674,70.0019,358.1163,273.0977,86.9876,2.3687e-05,1.9e-06,0.0,0 STARLINK-3100,1 49144U 21082Q   24060.53505533  .00000190  00000-0  23687-4 0  9996,2 49144  70.0019 358.1163 0002674 273.0977  86.9876 14.98330657135269,6950.191,96.107,573.914,570.197,0.0
49144.0,STARLINK-3100,PAYLOAD,2024-02-29 22:27:17,14.98335275,0.0002894,70.0012,357.107,265.6281,94.4548,-0.0001092,-1.396e-05,0.0,0 STARLINK-3100,1 49144U 21082Q   24060.93561522 -.00001396  00000-0 -10920-3 0  9996,2 49144  70.0012 357.1070 0002894 265.6281  94.4548 14.98335275135325,6950.177,96.107,574.053,570.03,0.0
49144.0,STARLINK-3100,PAYLOAD,2024-03-01 12:52:29,14.98348325,0.0002816,70.0015,355.5927,270.0921,89.9916,-0.00020646,-2.557e-05,0.0,0 STARLINK-3100,1 49144U 21082Q   24061.53644692 -.00002557  00000-0 -20646-3 0  9999,2 49144  70.0015 355.5927 0002816 270.0921  89.9916 14.98348325135414,6950.136,96.106,573.958,570.044,0.0
49144.0,STARLINK-3100,PAYLOAD,2024-03-01 20:53:09,14.9832737,0.000315,70.0014,354.7511,268.218,91.8619,0.00018835,2.155e-05,0.0,0 STARLINK-3100,1 49144U 21082Q   24061.87024981  .00002155  00000-0  18835-3 0  9998,2 49144  70.0014 354.7511 0003150 268.2180  91.8619 14.98327370135465,6950.201,96.107,574.255,569.877,0.0
49144.0,STARLINK-3100,PAYLOAD,2024-03-01 22:29:17,14.98327397,0.0003171,70.0015,354.5827,268.223,91.8566,0.00019401,2.222e-05,0.0,0 STARLINK-3100,1 49144U 21082Q   24061.93700968  .00002222  00000-0  19401-3 0  9996,2 49144  70.0015 354.5827 0003171 268.2230  91.8566 14.98327397135474,6950.201,96.107,574.27,569.862,0.0
49144.0,STARLINK-3100,PAYLOAD,2024-03-02 03:17:41,14.98339369,0.0002734,70.0014,354.0787,263.3103,96.7745,7.4208e-05,7.93e-06,0.0,0 STARLINK-3100,1 49144U 21082Q   24062.13728502  .00000793  00000-0  74208-4 0  9991,2 49144  70.0014 354.0787 0002734 263.3103  96.7745 14.98339369135501,6950.164,96.106,573.929,570.129,0.0
49144.0,STARLINK-3100,PAYLOAD,2024-03-02 04:53:49,14.98322349,0.000285,70.0014,353.9105,266.4469,93.6364,0.00039781,4.656e-05,0.0,0 STARLINK-3100,1 49144U 21082Q   24062.20404897  .00004656  00000-0  39781-3 0  9995,2 49144  70.0014 353.9105 0002850 266.4469  93.6364 14.98322349135515,6950.217,96.107,574.062,570.101,0.0
49144.0,STARLINK-3100,PAYLOAD,2024-03-02 22:31:18,14.98329805,0.0002604,70.0016,352.059,261.2949,98.7915,2.5072e-05,2.06e-06,0.0,0 STARLINK-3100,1 49144U 21082Q   24062.93841061  .00000206  00000-0  25072-4 0  9999,2 49144  70.0016 352.0590 0002604 261.2949  98.7915 14.98329805135622,6950.193,96.107,573.868,570.249,0.0
49144.0,STARLINK-3100,PAYLOAD,2024-03-03 04:55:51,14.98329753,0.0002844,70.0015,351.3857,269.0478,91.0356,-3.7546e-06,-1.38e-06,0.0,0 STARLINK-3100,1 49144U 21082Q   24063.20545195 -.00000138  00000-0 -37546-5 0  9995,2 49144  70.0015 351.3857 0002844 269.0478  91.0356 14.98329753135669,6950.194,96.107,574.035,570.082,0.0
49144.0,STARLINK-3100,PAYLOAD,2024-03-03 20:57:11,14.98333506,0.0002861,70.0019,349.7022,268.9933,91.0898,3.155e-05,2.84e-06,0.0,0 STARLINK-3100,1 49144U 21082Q   24063.87304851  .00000284  00000-0  31550-4 0  9998,2 49144  70.0019 349.7022 0002861 268.9933  91.0898 14.98333506135764,6950.182,96.107,574.035,570.059,0.0
49144.0,STARLINK-3100,PAYLOAD,2024-03-04 04:57:50,14.98340819,0.0002938,70.0005,348.8607,272.2347,87.8475,0.00015553,1.764e-05,0.0,0 STARLINK-3100,1 49144U 21082Q   24064.20683990  .00001764  00000-0  15553-3 0  9998,2 49144  70.0005 348.8607 0002938 272.2347  87.8475 14.98340819135815,6950.159,96.106,574.066,569.982,0.0
49144.0,STARLINK-3100,PAYLOAD,2024-03-04 22:35:20,14.98327027,0.0002931,70.0011,347.0074,270.2003,89.882,2.9327e-05,2.57e-06,0.0,0 STARLINK-3100,1 49144U 21082Q   24064.94120903  .00000257  00000-0  29327-4 0  9990,2 49144  70.0011 347.0074 0002931 270.2003  89.8820 14.98327027135925,6950.202,96.107,574.104,570.03,0.0
49144.0,STARLINK-3100,PAYLOAD,2024-03-05 03:23:45,14.98317273,0.0003021,70.0006,346.5033,269.507,90.5742,-8.7024e-05,-1.131e-05,0.0,0 STARLINK-3100,1 49144U 21082Q   24065.14149873 -.00001131  00000-0 -87024-4 0  9992,2 49144  70.0006 346.5033 0003021 269.5070  90.5742 14.98317273135951,6950.232,96.108,574.197,569.998,0.0
49144.0,STARLINK-3100,PAYLOAD,2024-03-05 04:59:53,14.98300183,0.0002734,70.0001,346.3347,261.7485,98.3364,0.00024294,2.805e-05,0.0,0 STARLINK-3100,1 49144U 21082Q   24065.20826233  .00002805  00000-0  24294-3 0  9997,2 49144  70.0001 346.3347 0002734 261.7485  98.3364 14.98300183135965,6950.285,96.109,574.05,570.25,0.0
49144.0,STARLINK-3100,PAYLOAD,2024-03-06 03:25:46,14.98328803,0.0002375,70.0021,343.9799,247.5096,112.5812,-2.3767e-05,-3.76e-06,0.0,0 STARLINK-3100,1 49144U 21082Q   24066.14289588 -.00000376  00000-0 -23767-4 0  9995,2 49144  70.0021 343.9799 0002375 247.5096 112.5812 14.98328803136105,6950.197,96.107,573.712,570.411,0.0
49144.0,STARLINK-3100,PAYLOAD,2024-03-06 05:01:54,14.9832838,0.0002418,70.0018,343.81,255.4056,104.6835,6.7614e-06,-1.2e-07,0.0,0 STARLINK-3100,1 49144U 21082Q   24066.20965539 -.00000012  00000-0  67614-5 0  9995,2 49144  70.0018 343.8100 0002418 255.4056 104.6835 14.98328380136116,6950.198,96.107,573.743,570.382,0.0
49144.0,STARLINK-3100,PAYLOAD,2024-03-07 03:27:46,14.98332285,0.0002642,70.0012,341.4539,261.437,98.649,0.00016599,1.888e-05,0.0,0 STARLINK-3100,1 49144U 21082Q   24067.14428828  .00001888  00000-0  16599-3 0  9999,2 49144  70.0012 341.4539 0002642 261.4370  98.6490 14.98332285136258,6950.186,96.107,573.887,570.215,0.0
